NORAD_CAT_ID,OBJECT_NAME,OBJECT_TYPE,EPOCH,MEAN_MOTION,ECCENTRICITY,INCLINATION,RA_OF_ASC_NODE,ARG_OF_PERICENTER,MEAN_ANOMALY,BSTAR,MEAN_MOTION_DOT,MEAN_MOTION_DDOT,TLE_LINE0,TLE_LINE1,TLE_LINE2,SEMIMAJOR_AXIS,PERIOD,APOGEE,PERIGEE,DECAYED
52556.0,STARLINK-3763,PAYLOAD,2023-01-31 10:28:13,15.11714901,0.0001873,53.2159,180.4819,111.7207,248.3986,0.00063328,0.00010631,0.0,0 STARLINK-3763,1 52556U 22051Z   23031.43627081  .00010631  00000-0  63328-3 0  9999,2 52556  53.2159 180.4819 0001873 111.7207 248.3986 15.11714901 40306,6909.107,95.256,532.266,529.678,0.0
52556.0,STARLINK-3763,PAYLOAD,2023-02-01 08:41:04,15.11741909,0.0001934,53.2156,176.3078,115.1092,245.0102,0.00074779,0.0001262,0.0,0 STARLINK-3763,1 52556U 22051Z   23032.36185513  .00012620  00000-0  74779-3 0  9993,2 52556  53.2156 176.3078 0001934 115.1092 245.0102 15.11741909 40517,6909.025,95.254,532.226,529.553,0.0
52556.0,STARLINK-3763,PAYLOAD,2023-02-01 13:26:40,15.11747191,0.0001899,53.2156,175.4135,114.5839,245.5352,0.00071567,0.00012066,0.0,0 STARLINK-3763,1 52556U 22051Z   23032.56019253  .00012066  00000-0  71567-3 0  9998,2 52556  53.2156 175.4135 0001899 114.5839 245.5352 15.11747191 40479,6909.009,95.254,532.186,529.561,0.0
52556.0,STARLINK-3763,PAYLOAD,2023-02-02 13:14:41,15.11778374,0.0001841,53.2164,170.9421,116.7045,243.4137,0.00080065,0.00013549,0.0,0 STARLINK-3763,1 52556U 22051Z   23033.55186761  .00013549  00000-0  80065-3 0  9997,2 52556  53.2164 170.9421 0001841 116.7045 243.4137 15.11778374 40628,6908.914,95.252,532.05,529.507,0.0
52556.0,STARLINK-3763,PAYLOAD,2023-02-02 21:10:41,15.11789362,0.0001811,53.2148,169.4506,114.2249,245.8934,0.00081093,0.00013731,0.0,0 STARLINK-3763,1 52556U 22051Z   23033.88242117  .00013731  00000-0  81093-3 0  9996,2 52556  53.2148 169.4506 0001811 114.2249 245.8934 15.11789362 40746,6908.88,95.251,531.996,529.494,0.0
52556.0,STARLINK-3763,PAYLOAD,2023-02-03 11:27:28,15.1181193,0.0001818,53.2154,166.7672,113.0082,247.1103,0.00095124,0.00016174,0.0,0 STARLINK-3763,1 52556U 22051Z   23034.47741160  .00016174  00000-0  95124-3 0  9998,2 52556  53.2154 166.7672 0001818 113.0082 247.1103 15.11811930 40768,6908.811,95.25,531.932,529.42,0.0
52556.0,STARLINK-3763,PAYLOAD,2023-02-03 17:48:15,15.11819467,0.0001791,53.2157,165.5745,113.1439,246.9743,0.00090956,0.00015454,0.0,0 STARLINK-3763,1 52556U 22051Z   23034.74184948  .00015454  00000-0  90956-3 0  9991,2 52556  53.2157 165.5745 0001791 113.1439 246.9743 15.11819467 40801,6908.788,95.249,531.891,529.416,0.0
52556.0,STARLINK-3763,PAYLOAD,2023-02-04 08:05:01,15.1184608,0.0001754,53.2154,162.8917,114.5521,245.5655,0.0011311,0.00019315,0.0,0 STARLINK-3763,1 52556U 22051Z   23035.33682662  .00019315  00000-0  11311-2 0  9990,2 52556  53.2154 162.8917 0001754 114.5521 245.5655 15.11846080 40960,6908.707,95.248,531.784,529.36,0.0
52556.0,STARLINK-3763,PAYLOAD,2023-02-04 14:25:48,15.11858782,0.0001707,53.2156,161.6993,114.3672,245.7499,0.0011888,0.00020326,0.0,0 STARLINK-3763,1 52556U 22051Z   23035.60125725  .00020326  00000-0  11888-2 0  9995,2 52556  53.2156 161.6993 0001707 114.3672 245.7499 15.11858782 40933,6908.669,95.247,531.713,529.354,0.0
52556.0,STARLINK-3763,PAYLOAD,2023-02-04 16:01:00,15.11861644,0.0001679,53.2157,161.4012,114.968,245.1488,0.0011946,0.00020428,0.0,0 STARLINK-3763,1 52556U 22051Z   23035.66736460  .00020428  00000-0  11946-2 0  9993,2 52556  53.2157 161.4012 0001679 114.9680 245.1488 15.11861644 40941,6908.66,95.247,531.685,529.365,0.0
52556.0,STARLINK-3763,PAYLOAD,2023-02-05 14:13:42,15.11902665,0.0001595,53.2158,157.2284,109.1688,250.9478,0.0012088,0.00020699,0.0,0 STARLINK-3763,1 52556U 22051Z   23036.59285560  .00020699  00000-0  12088-2 0  9994,2 52556  53.2158 157.2284 0001595 109.1688 250.9478 15.11902665 41153,6908.535,95.244,531.502,529.298,0.0
52556.0,STARLINK-3763,PAYLOAD,2023-02-05 17:24:05,15.11909763,0.0001598,53.2159,156.632,108.2453,251.8715,0.0012815,0.0002197,0.0,0 STARLINK-3763,1 52556U 22051Z   23036.72506642  .00021970  00000-0  12815-2 0  9997,2 52556  53.2159 156.6320 0001598 108.2453 251.8715 15.11909763 41106,6908.513,95.244,531.482,529.274,0.0
52556.0,STARLINK-3763,PAYLOAD,2023-02-06 07:40:48,15.11944016,0.0001591,53.2162,153.9482,107.4847,252.6321,0.0015788,0.00027182,0.0,0 STARLINK-3763,1 52556U 22051Z   23037.32000752  .00027182  00000-0  15788-2 0  9998,2 52556  53.2162 153.9482 0001591 107.4847 252.6321 15.11944016 41269,6908.409,95.242,531.373,529.175,0.0
52556.0,STARLINK-3763,PAYLOAD,2023-02-06 14:01:33,15.11961625,0.0001552,53.2161,152.7559,104.8743,255.2422,0.0017986,0.0003104,0.0,0 STARLINK-3763,1 52556U 22051Z   23037.58442116  .00031040  00000-0  17986-2 0  9990,2 52556  53.2161 152.7559 0001552 104.8743 255.2422 15.11961625 41236,6908.355,95.241,531.292,529.148,0.0
52556.0,STARLINK-3763,PAYLOAD,2023-02-07 01:07:52,15.1199341,0.000152,53.2164,150.6683,105.6229,254.4933,0.0018455,0.00031889,0.0,0 STARLINK-3763,1 52556U 22051Z   23038.04713703  .00031889  00000-0  18455-2 0  9998,2 52556  53.2164 150.6683 0001520 105.6229 254.4933 15.11993410 41377,6908.258,95.239,531.173,529.073,0.0
52556.0,STARLINK-3763,PAYLOAD,2023-02-07 13:49:21,15.12037724,0.0001561,53.2165,148.283,101.8955,258.2213,0.0021709,0.00037642,0.0,0 STARLINK-3763,1 52556U 22051Z   23038.57594192  .00037642  00000-0  21709-2 0  9994,2 52556  53.2165 148.2830 0001561 101.8955 258.2213 15.12037724 41386,6908.123,95.236,531.067,528.91,0.0
52556.0,STARLINK-3763,PAYLOAD,2023-02-08 13:37:03,15.12129809,0.0001522,53.2167,143.8093,102.1322,257.9842,0.0025941,0.00045202,0.0,0 STARLINK-3763,1 52556U 22051Z   23039.56740677  .00045202  00000-0  25941-2 0  9998,2 52556  53.2167 143.8093 0001522 102.1322 257.9842 15.12129809 41604,6907.843,95.23,530.759,528.657,0.0
52556.0,STARLINK-3763,PAYLOAD,2023-02-09 11:49:30,15.12216021,0.0001514,53.2168,139.6337,100.2475,259.8689,0.0025839,0.00045131,0.0,0 STARLINK-3763,1 52556U 22051Z   23040.49271955  .00045131  00000-0  25839-2 0  9997,2 52556  53.2168 139.6337 0001514 100.2475 259.8689 15.12216021 41678,6907.58,95.224,530.491,528.4,0.0
52556.0,STARLINK-3763,PAYLOAD,2023-02-09 22:55:42,15.12262139,0.0001479,53.2165,137.5468,94.463,265.6533,0.0027136,0.00047488,0.0,0 STARLINK-3763,1 52556U 22051Z   23040.95535599  .00047488  00000-0  27136-2 0  9994,2 52556  53.2165 137.5468 0001479  94.4630 265.6533 15.12262139 41814,6907.44,95.222,530.327,528.283,0.0
52556.0,STARLINK-3763,PAYLOAD,2023-02-10 11:37:03,15.12316724,0.0001494,53.2165,135.1604,93.702,266.4144,0.002857,0.00050108,0.0,0 STARLINK-3763,1 52556U 22051Z   23041.48406529  .00050108  00000-0  28570-2 0  9999,2 52556  53.2165 135.1604 0001494  93.7020 266.4144 15.12316724 41820,6907.274,95.218,530.171,528.107,0.0
52556.0,STARLINK-3763,PAYLOAD,2023-02-11 08:14:10,15.12409601,0.0001514,53.2158,131.2831,89.0736,271.0431,0.0030443,0.00053578,0.0,0 STARLINK-3763,1 52556U 22051Z   23042.34317684  .00053578  00000-0  30443-2 0  9994,2 52556  53.2158 131.2831 0001514  89.0736 271.0431 15.12409601 42027,6906.991,95.212,529.902,527.81,0.0
52556.0,STARLINK-3763,PAYLOAD,2023-02-11 12:59:39,15.12426663,0.0001487,53.2159,130.3881,88.9048,271.2116,0.0028095,0.00049417,0.0,0 STARLINK-3763,1 52556U 22051Z   23042.54142601  .00049417  00000-0  28095-2 0  9998,2 52556  53.2159 130.3881 0001487  88.9048 271.2116 15.12426663 41989,6906.939,95.211,529.831,527.777,0.0
52556.0,STARLINK-3763,PAYLOAD,2023-02-12 08:01:31,15.12506843,0.0001493,53.2153,126.8087,85.0924,275.024,0.0025015,0.00044033,0.0,0 STARLINK-3763,1 52556U 22051Z   23043.33439665  .00044033  00000-0  25015-2 0  9993,2 52556  53.2153 126.8087 0001493  85.0924 275.0240 15.12506843 42170,6906.695,95.206,529.591,527.529,0.0
52556.0,STARLINK-3763,PAYLOAD,2023-02-13 14:09:23,15.12619035,0.0001513,53.215,121.1393,87.3891,272.7276,0.0024293,0.00042881,0.0,0 STARLINK-3763,1 52556U 22051Z   23044.58985381  .00042881  00000-0  24293-2 0  9998,2 52556  53.2150 121.1393 0001513  87.3891 272.7276 15.12619035 42368,6906.353,95.199,529.263,527.174,0.0
52556.0,STARLINK-3763,PAYLOAD,2023-02-14 13:56:33,15.12704034,0.0001565,53.215,116.6637,86.2307,273.8866,0.0024555,0.00043454,0.0,0 STARLINK-3763,1 52556U 22051Z   23045.58094050  .00043454  00000-0  24555-2 0  9991,2 52556  53.2150 116.6637 0001565  86.2307 273.8866 15.12704034 42445,6906.095,95.194,529.041,526.879,0.0
52556.0,STARLINK-3763,PAYLOAD,2023-02-14 21:52:15,15.12730024,0.0001571,53.2152,115.1721,85.7299,274.3874,0.002302,0.00040733,0.0,0 STARLINK-3763,1 52556U 22051Z   23045.91129067  .00040733  00000-0  23020-2 0  9998,2 52556  53.2152 115.1721 0001571  85.7299 274.3874 15.12730024 42562,6906.016,95.192,528.966,526.796,0.0
52556.0,STARLINK-3763,PAYLOAD,2023-02-15 13:43:38,15.12794552,0.0001642,53.2155,112.188,84.0422,276.0759,0.0030087,0.00053522,0.0,0 STARLINK-3763,1 52556U 22051Z   23046.57197298  .00053522  00000-0  30087-2 0  9993,2 52556  53.2155 112.1880 0001642  84.0422 276.0759 15.12794552 42597,6905.819,95.188,528.818,526.55,0.0
52556.0,STARLINK-3763,PAYLOAD,2023-02-16 08:45:14,15.12863816,0.0001733,53.2157,108.607,82.5695,277.5495,0.0026331,0.0004685,0.0,0 STARLINK-3763,1 52556U 22051Z   23047.36475643  .00046850  00000-0  26331-2 0  9997,2 52556  53.2157 108.6070 0001733  82.5695 277.5495 15.12863816 42780,6905.608,95.184,528.67,526.277,0.0
52556.0,STARLINK-3763,PAYLOAD,2023-02-16 10:20:22,15.12868272,0.0001751,53.2161,108.3087,82.0778,278.0414,0.0025516,0.00045387,0.0,0 STARLINK-3763,1 52556U 22051Z   23047.43082018  .00045387  00000-0  25516-2 0  9993,2 52556  53.2161 108.3087 0001751  82.0778 278.0414 15.12868272 42729,6905.595,95.183,528.669,526.251,0.0
52556.0,STARLINK-3763,PAYLOAD,2023-02-17 03:46:48,15.12926779,0.0001831,53.2164,105.0261,82.146,277.9742,0.0023079,0.00041066,0.0,0 STARLINK-3763,1 52556U 22051Z   23048.15750449  .00041066  00000-0  23079-2 0  9995,2 52556  53.2164 105.0261 0001831  82.1460 277.9742 15.12926779 42907,6905.417,95.18,528.546,526.017,0.0
